[{"OBJECT_NAME":"STARLINK-32298","OBJECT_ID":"2024-183S","EPOCH":"2026-03-09T11:17:51.205056","MEAN_MOTION":15.30197754,"ECCENTRICITY":0.0001257,"INCLINATION":53.1612,"RA_OF_ASC_NODE":143.1144,"ARG_OF_PERICENTER":88.4931,"MEAN_ANOMALY":271.6213,"EPHEMERIS_TYPE":0,"CLASSIFICATION_TYPE":"U","NORAD_CAT_ID":61525,"ELEMENT_SET_NO":999,"REV_AT_EPOCH":7962,"BSTAR":7.3648029e-5,"MEAN_MOTION_DOT":1.822e-5,"MEAN_MOTION_DDOT":0},{"OBJECT_NAME":"TEVEL2-5","OBJECT_ID":"2025-052E","EPOCH":"2026-03-09T23:11:54.246048","MEAN_MOTION":15.30817434,"ECCENTRICITY":0.00047002,"INCLINATION":97.4013,"RA_OF_ASC_NODE":325.3677,"ARG_OF_PERICENTER":95.3936,"MEAN_ANOMALY":264.7842,"EPHEMERIS_TYPE":0,"CLASSIFICATION_TYPE":"U","NORAD_CAT_ID":63214,"ELEMENT_SET_NO":999,"REV_AT_EPOCH":5491,"BSTAR":0.00071764727,"MEAN_MOTION_DOT":0.00021339,"MEAN_MOTION_DDOT":0}]
